STARLINK-30611          
1 58108U 23161M   26068.46128898 -.00000871  00000+0 -17308-4 0  9993
2 58108  53.1599 153.8170 0000996 118.8201 241.2900 15.30187351134567
STRIX-4                 
1 60352U 24137A   26068.65404516  .00020530  00000+0  71820-3 0  9996
2 60352  43.0134 129.8162 0016840   5.2738 354.8289 15.29026223 88766
